{"type": "FeatureCollection", "features": [{"type": "Feature", "properties": {"norad_id": 28054, "name": "DMSP 5D-3 F16 (USA 172)", "group": "weather", "lat": -28.718054560075785, "lon": 6.6277567346498465, "alt_km": 845.3055672365872, "timestamp": "2025-12-10T04:57:29.249117+00:00", "meta": {"OBJECT_NAME": "DMSP 5D-3 F16 (USA 172)", "OBJECT_ID": "2003-048A", "EPOCH": "2025-12-09T21:11:48.155136", "MEAN_MOTION": 14.14422858, "ECCENTRICITY": 0.0006594, "INCLINATION": 99.0048, "RA_OF_ASC_NODE": 1.3177, "ARG_OF_PERICENTER": 329.7527, "MEAN_ANOMALY": 155.4673, "EPHEMERIS_TYPE": 0, "CLASSIFICATION_TYPE": "U", "NORAD_CAT_ID": 28054, "ELEMENT_SET_NO": 999, "REV_AT_EPOCH": 14272, "BSTAR": 0.00015362, "MEAN_MOTION_DOT": 2.49e-06, "MEAN_MOTION_DDOT": 0}, "tle": {"line1": "1 28054U 03048A   25343.88319624  .00000249  00000+0  15362-3 0  9996", "line2": "2 28054  99.0048   1.3177 0006594 329.7527 155.4673 14.14422858142725"}}, "geometry": {"type": "Point", "coordinates": [6.6277567346498465, -28.718054560075785]}}, {"type": "Feature", "properties": {"norad_id": 28912, "name": "METEOSAT-9 (MSG-2)", "group": "weather", "lat": 5.336378285269327, "lon": -160.49247337507168, "alt_km": 35773.470429629866, "timestamp": "2025-12-10T04:57:29.249164+00:00", "meta": {"OBJECT_NAME": "METEOSAT-9 (MSG-2)", "OBJECT_ID": "2005-049B", "EPOCH": "2025-12-08T20:40:05.248704", "MEAN_MOTION": 1.00274262, "ECCENTRICITY": 0.000384, "INCLINATION": 8.931, "RA_OF_ASC_NODE": 56.0124, "ARG_OF_PERICENTER": 190.0622, "MEAN_ANOMALY": 187.4345, "EPHEMERIS_TYPE": 0, "CLASSIFICATION_TYPE": "U", "NORAD_CAT_ID": 28912, "ELEMENT_SET_NO": 999, "REV_AT_EPOCH": 509, "BSTAR": 0, "MEAN_MOTION_DOT": 1.23e-06, "MEAN_MOTION_DDOT": 0}, "tle": {"line1": "1 28912U 05049B   25342.86117186  .00000123  00000+0  00000+0 0  9998", "line2": "2 28912   8.9310  56.0124 0003840 190.0622 187.4345  1.00274262  5098"}}, "geometry": {"type": "Point", "coordinates": [-160.49247337507168, 5.336378285269327]}}, {"type": "Feature", "properties": {"norad_id": 29522, "name": "DMSP 5D-3 F17 (USA 191)", "group": "weather", "lat": -80.75433068018333, "lon": 98.74882572698635, "alt_km": 844.3601716999037, "timestamp": "2025-12-10T04:57:29.249182+00:00", "meta": {"OBJECT_NAME": "DMSP 5D-3 F17 (USA 191)", "OBJECT_ID": "2006-050A", "EPOCH": "2025-12-09T19:12:50.793696", "MEAN_MOTION": 14.14917743, "ECCENTRICITY": 0.0009297, "INCLINATION": 98.7393, "RA_OF_ASC_NODE": 349.2509, "ARG_OF_PERICENTER": 233.9876, "MEAN_ANOMALY": 126.0436, "EPHEMERIS_TYPE": 0, "CLASSIFICATION_TYPE": "U", "NORAD_CAT_ID": 29522, "ELEMENT_SET_NO": 999, "REV_AT_EPOCH": 98563, "BSTAR": 0.00017949, "MEAN_MOTION_DOT": 3.04e-06, "MEAN_MOTION_DDOT": 0}, "tle": {"line1": "1 29522U 06050A   25343.80058789  .00000304  00000+0  17949-3 0  9992", "line2": "2 29522  98.7393 349.2509 0009297 233.9876 126.0436 14.14917743985632"}}, "geometry": {"type": "Point", "coordinates": [98.74882572698635, -80.75433068018333]}}, {"type": "Feature", "properties": {"norad_id": 32958, "name": "FENGYUN 3A", "group": "weather", "lat": -59.83372490600497, "lon": -60.99488378178884, "alt_km": 828.6458392975146, "timestamp": "2025-12-10T04:57:29.249196+00:00", "meta": {"OBJECT_NAME": "FENGYUN 3A", "OBJECT_ID": "2008-026A", "EPOCH": "2025-12-09T19:05:40.330752", "MEAN_MOTION": 14.19513133, "ECCENTRICITY": 0.0008032, "INCLINATION": 98.6694, "RA_OF_ASC_NODE": 283.3844, "ARG_OF_PERICENTER": 319.7099, "MEAN_ANOMALY": 40.3482, "EPHEMERIS_TYPE": 0, "CLASSIFICATION_TYPE": "U", "NORAD_CAT_ID": 32958, "ELEMENT_SET_NO": 999, "REV_AT_EPOCH": 90853, "BSTAR": 0.00012769, "MEAN_MOTION_DOT": 2.26e-06, "MEAN_MOTION_DDOT": 0}, "tle": {"line1": "1 32958U 08026A   25343.79560568  .00000226  00000+0  12769-3 0  9993", "line2": "2 32958  98.6694 283.3844 0008032 319.7099  40.3482 14.19513133908531"}}, "geometry": {"type": "Point", "coordinates": [-60.99488378178884, -59.83372490600497]}}, {"type": "Feature", "properties": {"norad_id": 35491, "name": "GOES 14", "group": "weather", "lat": -0.752032410726082, "lon": 45.27864704427465, "alt_km": 35802.15216892128, "timestamp": "2025-12-10T04:57:29.249212+00:00", "meta": {"OBJECT_NAME": "GOES 14", "OBJECT_ID": "2009-033A", "EPOCH": "2025-12-09T19:08:23.645760", "MEAN_MOTION": 1.00273255, "ECCENTRICITY": 0.0004015, "INCLINATION": 1.1921, "RA_OF_ASC_NODE": 85.4419, "ARG_OF_PERICENTER": 154.9274, "MEAN_ANOMALY": 17.2143, "EPHEMERIS_TYPE": 0, "CLASSIFICATION_TYPE": "U", "NORAD_CAT_ID": 35491, "ELEMENT_SET_NO": 999, "REV_AT_EPOCH": 469, "BSTAR": 0, "MEAN_MOTION_DOT": -6.5e-07, "MEAN_MOTION_DDOT": 0}, "tle": {"line1": "1 35491U 09033A   25343.79749590 -.00000065  00000+0  00000+0 0  9994", "line2": "2 35491   1.1921  85.4419 0004015 154.9274  17.2143  1.00273255  4693"}}, "geometry": {"type": "Point", "coordinates": [45.27864704427465, -0.752032410726082]}}, {"type": "Feature", "properties": {"norad_id": 35951, "name": "DMSP 5D-3 F18 (USA 210)", "group": "weather", "lat": 43.47234812401446, "lon": 149.1467214540289, "alt_km": 835.9281190714773, "timestamp": "2025-12-10T04:57:29.249225+00:00", "meta": {"OBJECT_NAME": "DMSP 5D-3 F18 (USA 210)", "OBJECT_ID": "2009-057A", "EPOCH": "2025-12-09T19:49:58.762848", "MEAN_MOTION": 14.14766714, "ECCENTRICITY": 0.0012095, "INCLINATION": 98.8832, "RA_OF_ASC_NODE": 320.2418, "ARG_OF_PERICENTER": 70.3505, "MEAN_ANOMALY": 289.8972, "EPHEMERIS_TYPE": 0, "CLASSIFICATION_TYPE": "U", "NORAD_CAT_ID": 35951, "ELEMENT_SET_NO": 999, "REV_AT_EPOCH": 83281, "BSTAR": 0.00026278, "MEAN_MOTION_DOT": 4.62e-06, "MEAN_MOTION_DDOT": 0}, "tle": {"line1": "1 35951U 09057A   25343.82637457  .00000462  00000+0  26278-3 0  9992", "line2": "2 35951  98.8832 320.2418 0012095  70.3505 289.8972 14.14766714832818"}}, "geometry": {"type": "Point", "coordinates": [149.1467214540289, 43.47234812401446]}}, {"type": "Feature", "properties": {"norad_id": 36411, "name": "EWS-G2 (GOES 15)", "group": "weather", "lat": 0.6130036047779376, "lon": -145.06072954520766, "alt_km": 35768.998795795225, "timestamp": "2025-12-10T04:57:29.249238+00:00", "meta": {"OBJECT_NAME": "EWS-G2 (GOES 15)", "OBJECT_ID": "2010-008A", "EPOCH": "2025-12-09T19:22:38.521920", "MEAN_MOTION": 1.00269111, "ECCENTRICITY": 0.0005904, "INCLINATION": 0.8068, "RA_OF_ASC_NODE": 86.0542, "ARG_OF_PERICENTER": 173.7332, "MEAN_ANOMALY": 171.0978, "EPHEMERIS_TYPE": 0, "CLASSIFICATION_TYPE": "U", "NORAD_CAT_ID": 36411, "ELEMENT_SET_NO": 999, "REV_AT_EPOCH": 5773, "BSTAR": 0, "MEAN_MOTION_DOT": 4.1e-07, "MEAN_MOTION_DDOT": 0}, "tle": {"line1": "1 36411U 10008A   25343.80739030  .00000041  00000+0  00000+0 0  9994", "line2": "2 36411   0.8068  86.0542 0005904 173.7332 171.0978  1.00269111 57734"}}, "geometry": {"type": "Point", "coordinates": [-145.06072954520766, 0.6130036047779376]}}, {"type": "Feature", "properties": {"norad_id": 36744, "name": "COMS 1", "group": "weather", "lat": -1.760278939107398, "lon": -78.32593143257355, "alt_km": 35781.85533702468, "timestamp": "2025-12-10T04:57:29.249267+00:00", "meta": {"OBJECT_NAME": "COMS 1", "OBJECT_ID": "2010-032A", "EPOCH": "2025-12-09T14:54:38.529792", "MEAN_MOTION": 1.00270977, "ECCENTRICITY": 0.0001129, "INCLINATION": 4.3339, "RA_OF_ASC_NODE": 78.0311, "ARG_OF_PERICENTER": 203.6251, "MEAN_ANOMALY": 148.7892, "EPHEMERIS_TYPE": 0, "CLASSIFICATION_TYPE": "U", "NORAD_CAT_ID": 36744, "ELEMENT_SET_NO": 999, "REV_AT_EPOCH": 4918, "BSTAR": 0, "MEAN_MOTION_DOT": -3.42e-06, "MEAN_MOTION_DDOT": 0}, "tle": {"line1": "1 36744U 10032A   25343.62127928 -.00000342  00000+0  00000+0 0  9992", "line2": "2 36744   4.3339  78.0311 0001129 203.6251 148.7892  1.00270977 49184"}}, "geometry": {"type": "Point", "coordinates": [-78.32593143257355, -1.760278939107398]}}, {"type": "Feature", "properties": {"norad_id": 37214, "name": "FENGYUN 3B", "group": "weather", "lat": 76.38181767045614, "lon": -115.02922813563175, "alt_km": 837.2336677695912, "timestamp": "2025-12-10T04:57:29.249280+00:00", "meta": {"OBJECT_NAME": "FENGYUN 3B", "OBJECT_ID": "2010-059A", "EPOCH": "2025-12-09T20:49:03.131040", "MEAN_MOTION": 14.14787247, "ECCENTRICITY": 0.0022217, "INCLINATION": 98.9905, "RA_OF_ASC_NODE": 23.8242, "ARG_OF_PERICENTER": 5.909, "MEAN_ANOMALY": 167.4653, "EPHEMERIS_TYPE": 0, "CLASSIFICATION_TYPE": "U", "NORAD_CAT_ID": 37214, "ELEMENT_SET_NO": 999, "REV_AT_EPOCH": 78065, "BSTAR": 5.4357e-06, "MEAN_MOTION_DOT": -3.5e-07, "MEAN_MOTION_DDOT": 0}, "tle": {"line1": "1 37214U 10059A   25343.86739735 -.00000035  00000+0  54357-5 0  9994", "line2": "2 37214  98.9905  23.8242 0022217   5.9090 167.4653 14.14787247780650"}}, "geometry": {"type": "Point", "coordinates": [-115.02922813563175, 76.38181767045614]}}, {"type": "Feature", "properties": {"norad_id": 37849, "name": "SUOMI NPP", "group": "weather", "lat": -75.05351711076518, "lon": 66.2084287741074, "alt_km": 835.3615303517663, "timestamp": "2025-12-10T04:57:29.249292+00:00", "meta": {"OBJECT_NAME": "SUOMI NPP", "OBJECT_ID": "2011-061A", "EPOCH": "2025-12-09T19:17:20.139648", "MEAN_MOTION": 14.19513, "ECCENTRICITY": 0.0002145, "INCLINATION": 98.777, "RA_OF_ASC_NODE": 281.1717, "ARG_OF_PERICENTER": 125.3105, "MEAN_ANOMALY": 234.8271, "EPHEMERIS_TYPE": 0, "CLASSIFICATION_TYPE": "U", "NORAD_CAT_ID": 37849, "ELEMENT_SET_NO": 999, "REV_AT_EPOCH": 73157, "BSTAR": 0.00012421, "MEAN_MOTION_DOT": 2.18e-06, "MEAN_MOTION_DDOT": 0}, "tle": {"line1": "1 37849U 11061A   25343.80370532  .00000218  00000+0  12421-3 0  9998", "line2": "2 37849  98.7770 281.1717 0002145 125.3105 234.8271 14.19513000731571"}}, "geometry": {"type": "Point", "coordinates": [66.2084287741074, -75.05351711076518]}}]}